ONEWEB-0116             
1 48046U 21025E   25118.18725626 -.00000068  00000+0 -22084-3 0  9990
2 48046  87.8992  42.6747 0001913  73.5144 286.6196 13.13467865199174
ONEWEB-0150             
1 48047U 21025F   25118.16356142  .00000424  00000+0  11273-2 0  9993
2 48047  87.8986  42.6805 0001974  83.9824 276.1530 13.13468804199068
ONEWEB-0107             
1 48048U 21025G   25118.16525986  .00000362  00000+0  95719-3 0  9997
2 48048  87.8985  42.6781 0001802  89.3043 270.8293 13.13468249199042
ONEWEB-0101             
1 48049U 21025H   25118.20419509 -.00000206  00000+0 -59971-3 0  9995
2 48049  87.8991  42.7050 0001772  80.9509 279.1821 13.13472207199026
ONEWEB-0113             
1 48050U 21025J   25117.77558680  .00000293  00000+0  76185-3 0  9992
2 48050  87.8989  42.7573 0002036  76.7623 283.3734 13.13970473199050
ONEWEB-0112             
1 48051U 21025K   25117.71327103  .00000167  00000+0  42114-3 0  9996
2 48051  87.8986  42.7650 0001971  80.1787 279.9564 13.13467839199050
ONEWEB-0156             
1 48052U 21025L   25118.17879640  .00000010  00000+0 -74088-5 0  9991
2 48052  87.8990  42.6813 0001942  83.8255 276.3095 13.13467861199105
ONEWEB-0161             
1 48053U 21025M   25118.22958297  .00000326  00000+0  85761-3 0  9991
2 48053  87.8991  42.6874 0001891  84.9540 275.1805 13.13469357199047
